{"type": "FeatureCollection", "features": [ {"type": "Feature", "properties": {"norad_id": 29843, "name": "FENGYUN 1C DEB", "group": "fengyun-1c-debris", "lat": -22.48398854365873, "lon": 6.739424356523246, "alt_km": 758.8363628146026, "timestamp": "2025-12-17T23:38:07.125593+00:00", "meta": {"OBJECT_NAME": "FENGYUN 1C DEB", "OBJECT_ID": "1999-025EM", "EPOCH": "2025-12-17T12:53:15.069408", "MEAN_MOTION": 14.28568095, "ECCENTRICITY": 0.0191662, "INCLINATION": 99.037, "RA_OF_ASC_NODE": 190.0523, "ARG_OF_PERICENTER": 276.7865, "MEAN_ANOMALY": 146.1748, "EPHEMERIS_TYPE": 0, "CLASSIFICATION_TYPE": "U", "NORAD_CAT_ID": 29843, "ELEMENT_SET_NO": 999, "REV_AT_EPOCH": 98350, "BSTAR": 0.0001663494, "MEAN_MOTION_DOT": 4.54e-06, "MEAN_MOTION_DDOT": 0}, "tle": {"line1": "1 29843U 99025EM  25351.53697997  .00000454  00000+0  16635-3 0  9998", "line2": "2 29843  99.0370 190.0523 0191662 276.7865 146.1748 14.28568095983506"}}, "geometry": {"type": "Point", "coordinates": [6.739424356523246, -22.48398854365873]}}, {"type": "Feature", "properties": {"norad_id": 29844, "name": "FENGYUN 1C DEB", "group": "fengyun-1c-debris", "lat": -46.67425262046488, "lon": -96.91017921801944, "alt_km": 905.525885591338, "timestamp": "2025-12-17T23:38:07.125603+00:00", "meta": {"OBJECT_NAME": "FENGYUN 1C DEB", "OBJECT_ID": "1999-025EN", "EPOCH": "2025-12-17T15:28:43.938336", "MEAN_MOTION": 14.31995054, "ECCENTRICITY": 0.01682961, "INCLINATION": 98.937, "RA_OF_ASC_NODE": 253.1359, "ARG_OF_PERICENTER": 152.7577, "MEAN_ANOMALY": 208.2559, "EPHEMERIS_TYPE": 0, "CLASSIFICATION_TYPE": "U", "NORAD_CAT_ID": 29844, "ELEMENT_SET_NO": 999, "REV_AT_EPOCH": 98411, "BSTAR": 0.00031455318, "MEAN_MOTION_DOT": 9.37e-06, "MEAN_MOTION_DDOT": 0}, "tle": {"line1": "1 29844U 99025EN  25351.64495299  .00000937  00000+0  31455-3 0  9995", "line2": "2 29844  98.9370 253.1359 0168296 152.7577 208.2559 14.31995054984114"}}, "geometry": {"type": "Point", "coordinates": [-96.91017921801944, -46.67425262046488]}}, {"type": "Feature", "properties": {"norad_id": 29845, "name": "FENGYUN 1C DEB", "group": "fengyun-1c-debris", "lat": 77.43140763224835, "lon": -145.55052204727133, "alt_km": 742.4534101329264, "timestamp": "2025-12-17T23:38:07.125614+00:00", "meta": {"OBJECT_NAME": "FENGYUN 1C DEB", "OBJECT_ID": "1999-025EP", "EPOCH": "2025-12-17T13:40:20.940384", "MEAN_MOTION": 14.26496523, "ECCENTRICITY": 0.00780407, "INCLINATION": 98.5217, "RA_OF_ASC_NODE": 351.7852, "ARG_OF_PERICENTER": 117.1954, "MEAN_ANOMALY": 11.7347, "EPHEMERIS_TYPE": 0, "CLASSIFICATION_TYPE": "U", "NORAD_CAT_ID": 29845, "ELEMENT_SET_NO": 999, "REV_AT_EPOCH": 98178, "BSTAR": 0.00046518506, "MEAN_MOTION_DOT": 1.115e-05, "MEAN_MOTION_DDOT": 0}, "tle": {"line1": "1 29845U 99025EP  25351.56968681  .00001115  00000+0  46519-3 0  9993", "line2": "2 29845  98.5217 351.7852 0078040 117.1954  11.7347 14.26496523981788"}}, "geometry": {"type": "Point", "coordinates": [-145.55052204727133, 77.43140763224835]}}, {"type": "Feature", "properties": {"norad_id": 29846, "name": "FENGYUN 1C DEB", "group": "fengyun-1c-debris", "lat": -8.518701190684377, "lon": 34.98876007156827, "alt_km": 804.0645841897121, "timestamp": "2025-12-17T23:38:07.125624+00:00", "meta": {"OBJECT_NAME": "FENGYUN 1C DEB", "OBJECT_ID": "1999-025EQ", "EPOCH": "2025-12-17T14:15:01.922400", "MEAN_MOTION": 14.19095216, "ECCENTRICITY": 0.00837865, "INCLINATION": 98.6545, "RA_OF_ASC_NODE": 33.2997, "ARG_OF_PERICENTER": 290.1513, "MEAN_ANOMALY": 223.9427, "EPHEMERIS_TYPE": 0, "CLASSIFICATION_TYPE": "U", "NORAD_CAT_ID": 29846, "ELEMENT_SET_NO": 999, "REV_AT_EPOCH": 97928, "BSTAR": 0.00012539355, "MEAN_MOTION_DOT": 2.28e-06, "MEAN_MOTION_DDOT": 0}, "tle": {"line1": "1 29846U 99025EQ  25351.59377225  .00000228  00000+0  12539-3 0  9994", "line2": "2 29846  98.6545  33.2997 0083786 290.1513 223.9427 14.19095216979286"}}, "geometry": {"type": "Point", "coordinates": [34.98876007156827, -8.518701190684377]}}, {"type": "Feature", "properties": {"norad_id": 29847, "name": "FENGYUN 1C DEB", "group": "fengyun-1c-debris", "lat": -66.18222137420989, "lon": 8.578404863585705, "alt_km": 892.3245781073356, "timestamp": "2025-12-17T23:38:07.125635+00:00", "meta": {"OBJECT_NAME": "FENGYUN 1C DEB", "OBJECT_ID": "1999-025ER", "EPOCH": "2025-12-17T14:14:18.489120", "MEAN_MOTION": 14.03003427, "ECCENTRICITY": 0.00849798, "INCLINATION": 98.9029, "RA_OF_ASC_NODE": 347.3964, "ARG_OF_PERICENTER": 25.3963, "MEAN_ANOMALY": 91.3245, "EPHEMERIS_TYPE": 0, "CLASSIFICATION_TYPE": "U", "NORAD_CAT_ID": 29847, "ELEMENT_SET_NO": 999, "REV_AT_EPOCH": 96803, "BSTAR": 0.00037966729, "MEAN_MOTION_DOT": 5.65e-06, "MEAN_MOTION_DDOT": 0}, "tle": {"line1": "1 29847U 99025ER  25351.59326955  .00000565  00000+0  37967-3 0  9995", "line2": "2 29847  98.9029 347.3964 0084979  25.3963  91.3245 14.03003427968034"}}, "geometry": {"type": "Point", "coordinates": [8.578404863585705, -66.18222137420989]}}, {"type": "Feature", "properties": {"norad_id": 29848, "name": "FENGYUN 1C DEB", "group": "fengyun-1c-debris", "lat": 68.59121536621925, "lon": -163.4808270283372, "alt_km": 889.4370664918652, "timestamp": "2025-12-17T23:38:07.125645+00:00", "meta": {"OBJECT_NAME": "FENGYUN 1C DEB", "OBJECT_ID": "1999-025ES", "EPOCH": "2025-12-17T15:08:04.449120", "MEAN_MOTION": 14.20596294, "ECCENTRICITY": 0.01167492, "INCLINATION": 98.2489, "RA_OF_ASC_NODE": 217.904, "ARG_OF_PERICENTER": 280.9656, "MEAN_ANOMALY": 138.1944, "EPHEMERIS_TYPE": 0, "CLASSIFICATION_TYPE": "U", "NORAD_CAT_ID": 29848, "ELEMENT_SET_NO": 999, "REV_AT_EPOCH": 97187, "BSTAR": 0.00098090335, "MEAN_MOTION_DOT": 2.219e-05, "MEAN_MOTION_DDOT": 0}, "tle": {"line1": "1 29848U 99025ES  25351.63060705  .00002219  00000+0  98090-3 0  9991", "line2": "2 29848  98.2489 217.9040 0116749 280.9656 138.1944 14.20596294971874"}}, "geometry": {"type": "Point", "coordinates": [-163.4808270283372, 68.59121536621925]}}, {"type": "Feature", "properties": {"norad_id": 29849, "name": "FENGYUN 1C DEB", "group": "fengyun-1c-debris", "lat": -20.11082958907456, "lon": 79.6551718389723, "alt_km": 844.3518348008038, "timestamp": "2025-12-17T23:38:07.125655+00:00", "meta": {"OBJECT_NAME": "FENGYUN 1C DEB", "OBJECT_ID": "1999-025ET", "EPOCH": "2025-12-17T05:11:09.282624", "MEAN_MOTION": 14.04904296, "ECCENTRICITY": 0.00803875, "INCLINATION": 99.0114, "RA_OF_ASC_NODE": 75.5608, "ARG_OF_PERICENTER": 32.094, "MEAN_ANOMALY": 22.5429, "EPHEMERIS_TYPE": 0, "CLASSIFICATION_TYPE": "U", "NORAD_CAT_ID": 29849, "ELEMENT_SET_NO": 999, "REV_AT_EPOCH": 96433, "BSTAR": 0.00069638227, "MEAN_MOTION_DOT": 1.108e-05, "MEAN_MOTION_DDOT": 0}, "tle": {"line1": "1 29849U 99025ET  25351.21607966  .00001108  00000+0  69638-3 0  9994", "line2": "2 29849  99.0114  75.5608 0080387  32.0940  22.5429 14.04904296964331"}}, "geometry": {"type": "Point", "coordinates": [79.6551718389723, -20.11082958907456]}}, {"type": "Feature", "properties": {"norad_id": 29850, "name": "FENGYUN 1C DEB", "group": "fengyun-1c-debris", "lat": -3.852813743606172, "lon": 97.49036765462361, "alt_km": 898.2419168443002, "timestamp": "2025-12-17T23:38:07.125665+00:00", "meta": {"OBJECT_NAME": "FENGYUN 1C DEB", "OBJECT_ID": "1999-025EU", "EPOCH": "2025-12-17T13:21:29.805408", "MEAN_MOTION": 13.99876915, "ECCENTRICITY": 0.01020882, "INCLINATION": 98.1242, "RA_OF_ASC_NODE": 277.6611, "ARG_OF_PERICENTER": 276.059, "MEAN_ANOMALY": 272.1104, "EPHEMERIS_TYPE": 0, "CLASSIFICATION_TYPE": "U", "NORAD_CAT_ID": 29850, "ELEMENT_SET_NO": 999, "REV_AT_EPOCH": 96087, "BSTAR": 0.001000304, "MEAN_MOTION_DOT": 1.498e-05, "MEAN_MOTION_DDOT": 0}, "tle": {"line1": "1 29850U 99025EU  25351.55659497  .00001498  00000+0  10003-2 0  9992", "line2": "2 29850  98.1242 277.6611 0102088 276.0590 272.1104 13.99876915960875"}}, "geometry": {"type": "Point", "coordinates": [97.49036765462361, -3.852813743606172]}}, {"type": "Feature", "properties": {"norad_id": 29851, "name": "FENGYUN 1C DEB", "group": "fengyun-1c-debris", "lat": -5.355571465251536, "lon": -147.89939108816097, "alt_km": 862.5194608346974, "timestamp": "2025-12-17T23:38:07.125675+00:00", "meta": {"OBJECT_NAME": "FENGYUN 1C DEB", "OBJECT_ID": "1999-025EV", "EPOCH": "2025-12-17T14:42:07.634304", "MEAN_MOTION": 13.83603213, "ECCENTRICITY": 0.01422568, "INCLINATION": 99.5837, "RA_OF_ASC_NODE": 32.6289, "ARG_OF_PERICENTER": 214.6265, "MEAN_ANOMALY": 278.4379, "EPHEMERIS_TYPE": 0, "CLASSIFICATION_TYPE": "U", "NORAD_CAT_ID": 29851, "ELEMENT_SET_NO": 999, "REV_AT_EPOCH": 95434, "BSTAR": 0.00033138829, "MEAN_MOTION_DOT": 3.49e-06, "MEAN_MOTION_DDOT": 0}, "tle": {"line1": "1 29851U 99025EV  25351.61258836  .00000349  00000+0  33139-3 0  9992", "line2": "2 29851  99.5837  32.6289 0142256 214.6265 278.4379 13.83603213954349"}}, "geometry": {"type": "Point", "coordinates": [-147.89939108816097, -5.355571465251536]}}, {"type": "Feature", "properties": {"norad_id": 29852, "name": "FENGYUN 1C DEB", "group": "fengyun-1c-debris", "lat": 76.17636609464117, "lon": -135.88640451893332, "alt_km": 781.775726091164, "timestamp": "2025-12-17T23:38:07.125686+00:00", "meta": {"OBJECT_NAME": "FENGYUN 1C DEB", "OBJECT_ID": "1999-025EW", "EPOCH": "2025-12-17T13:29:24.607104", "MEAN_MOTION": 14.07095501, "ECCENTRICITY": 0.01351201, "INCLINATION": 99.3709, "RA_OF_ASC_NODE": 1.5237, "ARG_OF_PERICENTER": 136.7348, "MEAN_ANOMALY": 344.2272, "EPHEMERIS_TYPE": 0, "CLASSIFICATION_TYPE": "U", "NORAD_CAT_ID": 29852, "ELEMENT_SET_NO": 999, "REV_AT_EPOCH": 96052, "BSTAR": 0.0015419012, "MEAN_MOTION_DOT": 2.756e-05, "MEAN_MOTION_DDOT": 0}, "tle": {"line1": "1 29852U 99025EW  25351.56209036  .00002756  00000+0  15419-2 0  9999", "line2": "2 29852  99.3709   1.5237 0135120 136.7348 344.2272 14.07095501960525"}}, "geometry": {"type": "Point", "coordinates": [-135.88640451893332, 76.17636609464117]}}]}